ONEWEB-0555             
1 56057U 23043M   24301.87116702  .00000072  00000+0  15397-3 0  9993
2 56057  87.9125 347.7632 0001250 113.3975 246.7288 13.16594439 80365
ONEWEB-0557             
1 56058U 23043N   24301.88541355  .00000110  00000+0  25503-3 0  9994
2 56058  87.9123 347.7848 0001496 130.3401 229.7861 13.16593996 80363
ONEWEB-0558             
1 56059U 23043P   24301.89518597  .00000094  00000+0  19548-3 0  9991
2 56059  87.9350   2.9509 0002160  88.4133 271.7249 13.21822857 79333
ONEWEB-0559             
1 56060U 23043Q   24301.88415023  .00000045  00000+0  78465-4 0  9992
2 56060  87.9348   2.9486 0002402  98.3423 261.7983 13.21824264 79346
ONEWEB-0566             
1 56061U 23043R   24301.87784312  .00000121  00000+0  26251-3 0  9992
2 56061  87.9345   2.9499 0002300  86.6880 273.4517 13.21825140 79327
ONEWEB-0568             
1 56062U 23043S   24302.05482579  .00000119  00000+0  27717-3 0  9999
2 56062  87.9123 347.7161 0001560  97.0381 263.0927 13.16594368 81318
ONEWEB-0574             
1 56063U 23043T   24302.17430574  .00000078  00000+0  15844-3 0  9993
2 56063  87.9344   2.8831 0001693  95.7705 264.3622 13.21826039 80313
ONEWEB-0575             
1 56064U 23043U   24301.89650304  .00000032  00000+0  49653-4 0  9993
2 56064  87.9126 347.7581 0001822 115.0048 245.1272 13.16592060 80377
ONEWEB-0576             
1 56065U 23043V   24302.10546923 -.00000420  00000+0 -11334-2 0  9996
2 56065  87.9121 347.7112 0001552 105.3115 254.8187 13.16593505 81301
ONEWEB-0577             
1 56066U 23043W   24301.88383205  .00000085  00000+0  18770-3 0  9990
2 56066  87.9122 347.7548 0001916 120.9109 239.2210 13.16593533 80399
ONEWEB-0578             
1 56067U 23043X   24301.93460534  .00000002  00000+0 -25561-4 0  9995
2 56067  87.9350   2.9337 0001683  99.2256 260.9069 13.21827826 80249
ONEWEB-0579             
1 56068U 23043Y   24301.69806840  .00000057  00000+0  10623-3 0  9994
2 56068  87.9347   2.9740 0002238  97.6959 262.4429 13.21827097 79316
ONEWEB-0581             
1 56069U 23043Z   24302.11816264  .00000099  00000+0  22493-3 0  9998
2 56069  87.9123 347.7384 0002171 109.6219 250.5146 13.16593259 81302
ONEWEB-0609             
1 56070U 23043AA  24301.75345345  .00000123  00000+0  29278-3 0  9992
2 56070  87.9121  18.1337 0001826  97.2939 262.8399 13.15548494 77880
ONEWEB-0613             
1 56071U 23043AB  24302.20504740  .00000192  00000+0  47500-3 0  9994
2 56071  87.9127  18.0456 0002092  94.9216 265.2153 13.15547785 78851
ONEWEB-0630             
1 56072U 23043AC  24302.20028005  .00000159  00000+0  38790-3 0  9994
2 56072  87.9122  18.0328 0001988  92.4918 267.6440 13.15545994 78844
ONEWEB-0632             
1 56073U 23043AD  24302.19553955  .00000142  00000+0  34386-3 0  9999
2 56073  87.9122  18.0528 0002026 107.7762 252.3589 13.15547543 78845
ONEWEB-0633             
1 56074U 23043AE  24302.18919275  .00000076  00000+0  16653-3 0  9993
2 56074  87.9116  18.0309 0002101  87.5433 272.5938 13.15548946 78828
ONEWEB-0634             
1 56075U 23043AF  24302.17492438 -.00000038  00000+0 -13364-3 0  9996
2 56075  87.9124  18.0530 0001588  89.7582 270.3730 13.15549830 78819
ONEWEB-0635             
1 56076U 23043AG  24301.94200703 -.00001517  00000+0 -40652-2 0  9995
2 56076  87.9095  18.1487 0001875 113.3619 246.7709 13.15554153 77909
ONEWEB-0636             
1 56077U 23043AH  24301.93407207 -.00000072  00000+0 -22648-3 0  9994
2 56077  87.9123  18.1225 0002012 108.7830 251.3518 13.15546678 77889
ONEWEB-0637             
1 56078U 23043AJ  24302.23197425  .00000010  00000+0 -84250-5 0  9997
2 56078  87.9124  18.0413 0001883 110.3195 249.8137 13.15549170 78854
ONEWEB-0647             
1 56079U 23043AK  24302.22721550 -.00000157  00000+0 -45187-3 0  9996
2 56079  87.9122  18.0579 0002018 101.5410 258.5947 13.15548124 77931
ONEWEB-0651             
1 56080U 23043AL  24302.22246265  .00000133  00000+0  31888-3 0  9998
2 56080  87.9125  18.0397 0001827 112.3190 247.8134 13.15546872 77933
ONEWEB-0718             
1 56081U 23043AM  24301.91347774  .00000908  00000+0  23790-2 0  9993
2 56081  87.9125  18.0866 0001513  86.2151 273.9152 13.15545736 77908
ONEWEB-0561             
1 56710U 23068A   24301.77972486  .00000054  00000+0  10118-3 0  9990
2 56710  87.9285  33.3281 0002205 114.8623 245.2740 13.20772332 70645
ONEWEB-0668             
1 56711U 23068B   24301.66452378 -.00000157  00000+0 -44483-3 0  9990
2 56711  87.9116 347.7999 0001321  86.3821 273.7461 13.16594430 73159
ONEWEB-0676             
1 56712U 23068C   24301.87275229  .00000075  00000+0  16311-3 0  9998
2 56712  87.9123 347.7739 0002236 109.4333 250.7040 13.16594090 73106
ONEWEB-0677             
1 56713U 23068D   24301.76867742  .00000021  00000+0  18632-4 0  9994
2 56713  87.9286  33.3009 0001581 109.3964 250.7341 13.20772321 70949
ONEWEB-0678             
1 56714U 23068E   24302.18602881 -.00000011  00000+0 -62092-4 0  9993
2 56714  87.9125  17.9992 0002120  96.1597 263.9774 13.15548301 71496
ONEWEB-0679             
1 56715U 23068F   24301.84186309  .00000022  00000+0  23720-4 0  9993
2 56715  87.9120 347.7791 0001376 115.6063 244.5210 13.16598314 73122
ONEWEB-0680             
1 56716U 23068G   24302.15539594  .00000041  00000+0  67987-4 0  9991
2 56716  87.9327   2.9327 0001051  93.4187 266.7067 13.21827654 72928
ONEWEB-0681             
1 56717U 23068H   24301.93854541  .00000003  00000+0 -25047-4 0  9999
2 56717  87.9346   2.9555 0002215 127.5215 232.6121 13.21824874 72189
ONEWEB-0682             
1 56718U 23068J   24301.98394400  .00000145  00000+0  35104-3 0  9998
2 56718  87.9123  18.0773 0001211 102.1292 257.9974 13.15546820 71632
ONEWEB-0683             
1 56719U 23068K   24302.15750613  .00000018  00000+0  13405-4 0  9991
2 56719  87.9123  18.0145 0001453  99.0111 261.1184 13.15547390 71620
ONEWEB-0684             
1 56720U 23068L   24301.93723931 -.00000405  00000+0 -11088-2 0  9996
2 56720  87.9097  18.1347 0002980  76.9440 283.2023 13.15547925 70723
ONEWEB-0686             
1 56721U 23068M   24301.83157351  .00000143  00000+0  33986-3 0  9992
2 56721  87.9120 347.8176 0001683  86.0966 274.0357 13.16595625 73112
ONEWEB-0694             
1 56722U 23068N   24301.86882920  .00000038  00000+0  66403-4 0  9997
2 56722  87.9117 347.7287 0001438  98.8406 261.2887 13.16073042 73175
ONEWEB-0696             
1 56723U 23068P   24301.74235894  .00000210  00000+0  52463-3 0  9999
2 56723  87.9123  18.1483 0002033 100.7069 259.4290 13.15549004 70810
ONEWEB-0703             
1 56724U 23068Q   24301.75184817 -.00000203  00000+0 -57434-3 0  9996
2 56724  87.9123  18.1666 0002970 104.8308 255.3152 13.15547940 70702
ONEWEB-0721             
1 56725U 23068R   24302.25001157 -.00115209  00000+0 -26345-1 0  9996
2 56725  86.6704 280.5010 0009718 142.0535  35.1012 14.56577140 78949
ONEWEB-0015             
1 61594U 24188A   24302.25001157 -.00005050  00000+0 -50809-3 0  9996
2 61594  86.5107 167.1270 0004161 166.9569 225.4078 14.91541062  2229
ONEWEB-0687             
1 61595U 24188B   24302.25001157 -.00044216  00000+0 -44596-2 0  9999
2 61595  86.5106 167.1271 0003844 165.4270 225.3141 14.91460990  2433
ONEWEB-0688             
1 61596U 24188C   24302.25001157 -.00044856  00000+0 -45315-2 0  9990
2 61596  86.5118 167.1313 0003516 161.6175 225.9571 14.91401026  2205
ONEWEB-0689             
1 61597U 24188D   24302.25001157 -.00045216  00000+0 -46086-2 0  9998
2 61597  86.5101 167.1314 0001999 147.0539 230.6197 14.91050377  2277
ONEWEB-0690             
1 61598U 24188E   24302.25001157 -.00044440  00000+0 -44506-2 0  9992
2 61598  86.5111 167.1279 0004766 173.1480 225.4583 14.91741702  2268
ONEWEB-0691             
1 61599U 24188F   24302.16667824 -.00007520  00000+0 -75378-3 0  9992
2 61599  86.5123 167.1687 0004313 171.3482 136.0034 14.91624771  2416
ONEWEB-0692             
1 61600U 24188G   24302.25001157 -.00045086  00000+0 -46228-2 0  9996
2 61600  86.5136 167.1361 0000927 144.0489 226.8398 14.90812432  2360
ONEWEB-0693             
1 61601U 24188H   24302.25001157 -.00045493  00000+0 -46461-2 0  9998
2 61601  86.5094 167.1309 0001657 147.5142 227.8472 14.90972492  2368
ONEWEB-0695             
1 61602U 24188J   24302.25001157 -.00047777  00000+0 -48770-2 0  9991
2 61602  86.5140 167.1361 0001687 150.7203 223.9484 14.91003972  2398
ONEWEB-0697             
1 61603U 24188K   24302.25001157 -.00044818  00000+0 -45845-2 0  9995
2 61603  86.5092 167.1310 0001314 145.2157 228.2391 14.90905530  2422
ONEWEB-0698             
1 61604U 24188L   24302.25001157 -.00045050  00000+0 -45146-2 0  9999
2 61604  86.5106 167.1268 0004655 173.0992 223.7149 14.91719539  2185
ONEWEB-0699             
1 61605U 24188M   24302.25001157 -.00045732  00000+0 -46994-2 0  9999
2 61605  86.5121 167.1350 0000562 146.3734 222.0663 14.90728029  2282
ONEWEB-0700             
1 61606U 24188N   24302.25001157 -.00045641  00000+0 -46577-2 0  9996
2 61606  86.5096 167.1311 0001831 147.7059 228.6930 14.91003247  2330
ONEWEB-0701             
1 61607U 24188P   24301.91667824  .00025327  00000+0  25280-2 0  9993
2 61607  86.5123 167.2795 0003546 163.9422 236.4520 14.91404211  2426
ONEWEB-0702             
1 61608U 24188Q   24302.25001157 -.00044958  00000+0 -45086-2 0  9992
2 61608  86.5104 167.1263 0004511 172.0696 223.8931 14.91691528  2236
ONEWEB-0704             
1 61609U 24188R   24302.25001157 -.00045579  00000+0 -46774-2 0  9998
2 61609  86.5131 167.1357 0000758 144.7058 225.1426 14.90780344  2292
ONEWEB-0705             
1 61610U 24188S   24302.25001157 -.00044801  00000+0 -45166-2 0  9991
2 61610  86.5124 167.1330 0003873 163.0545 226.9251 14.91482173  2423
ONEWEB-0706             
1 61611U 24188T   24302.25001157 -.00044850  00000+0 -45077-2 0  9997
2 61611  86.5123 167.1327 0004246 169.1661 224.3792 14.91603152  2255
